[{"OBJECT_NAME":"STARLINK-35053","OBJECT_ID":"2025-207T","EPOCH":"2026-03-09T18:00:33.016896","MEAN_MOTION":15.05647822,"ECCENTRICITY":2.684e-5,"INCLINATION":97.6027,"RA_OF_ASC_NODE":138.7711,"ARG_OF_PERICENTER":225.1605,"MEAN_ANOMALY":134.96,"EPHEMERIS_TYPE":0,"CLASSIFICATION_TYPE":"U","NORAD_CAT_ID":65609,"ELEMENT_SET_NO":999,"REV_AT_EPOCH":2811,"BSTAR":0.00045328842,"MEAN_MOTION_DOT":6.485e-5,"MEAN_MOTION_DDOT":0},{"OBJECT_NAME":"KSLV-II R\/B","OBJECT_ID":"2025-274P","EPOCH":"2026-03-09T17:44:44.185056","MEAN_MOTION":14.98166503,"ECCENTRICITY":0.00605567,"INCLINATION":97.7452,"RA_OF_ASC_NODE":0.3618,"ARG_OF_PERICENTER":19.961,"MEAN_ANOMALY":340.3962,"EPHEMERIS_TYPE":0,"CLASSIFICATION_TYPE":"U","NORAD_CAT_ID":66663,"ELEMENT_SET_NO":999,"REV_AT_EPOCH":1543,"BSTAR":0.00059831331,"MEAN_MOTION_DOT":7.309e-5,"MEAN_MOTION_DDOT":0}]
